ICEYE-X40               
1 60549U 24149CK  26189.47757477  .00001454  00000+0  12794-3 0  9997
2 60549  97.6792 265.6308 0004376  20.5352 339.6046 14.98035826103262
ICEYE-X49               
1 62384U 24247H   26189.42449912  .00002578  00000+0  15534-3 0  9995
2 62384  44.9968 243.9653 0001121 231.8515 128.2262 15.13588040 85390
ICEYE-X47               
1 62389U 24247N   26189.46592593  .00001878  00000+0  11739-3 0  9993
2 62389  44.9955 243.3335 0002066 318.4895  41.5825 15.13467031 85404
ICEYE-X42               
1 62698U 25009CT  26188.66405801  .00001105  00000+0  11496-3 0  9992
2 62698  97.7388 266.6104 0001284  92.2652 267.8713 14.91853165 80343
ICEYE-X41               
1 62700U 25009CV  26189.46215291  .00001169  00000+0  10691-3 0  9993
2 62700  97.7066 268.6801 0000876  10.9550 349.1690 14.96892107 80595
ICEYE-X45               
1 62705U 25009DA  26189.19747920  .00002043  00000+0  16562-3 0  9992
2 62705  97.8390 276.0538 0001325  83.4398 276.6976 15.00829189 80830
ICEYE-X44               
1 62707U 25009DC  26189.48795506  .00002061  00000+0  18818-3 0  9995
2 62707  97.7046 268.2776 0002502  84.0345 276.1161 14.96139664103128
ICEYE-X48               
1 63253U 25052AV  26188.69627441  .00001921  00000+0  16718-3 0  9995
2 63253  97.6841  80.5695 0003119 121.9484 238.2042 14.98099107 71740
ICEYE-X50               
1 63255U 25052AX  26189.50441068  .00001408  00000+0  13280-3 0  9998
2 63255  97.6866  80.9884 0003170 116.0121 244.1426 14.95347461 71831
ICEYE-X51               
1 63257U 25052AZ  26189.52526412  .00002714  00000+0  21811-3 0  9999
2 63257  97.7600  84.5808 0002019  68.3812 291.7627 15.00874689 72008
ICEYE-X46               
1 63258U 25052BA  26189.16656023  .00001272  00000+0  12043-3 0  9997
2 63258  97.6863  80.6557 0001590  86.8528 273.2875 14.95347086 71782
ICEYE-X54               
1 64570U 25135AU  26189.51485494  .00002029  00000+0  19229-3 0  9992
2 64570  97.7739 303.7329 0001538 208.9898 151.1237 14.94705120 57087
ICEYE-X52               
1 64572U 25135AW  26189.57489873  .00001120  00000+0  11142-3 0  9992
2 64572  97.7764 303.5907 0000709 223.3703 136.7461 14.93635395 57074
ICEYE-X56               
1 64574U 25135AY  26189.50687213  .00001590  00000+0  14795-3 0  9993
2 64574  97.7754 304.3009 0000971 237.2635 122.8492 14.95735429 57112
ICEYE-X57               
1 64578U 25135BC  26189.46763313  .00002936  00000+0  23574-3 0  9998
2 64578  97.8000 305.9980 0002052  62.1769 297.9662 15.00846186 57215
ICEYE-X55               
1 64581U 25135BF  26189.51254507  .00001768  00000+0  16562-3 0  9999
2 64581  97.7752 304.1362 0001898 272.4655  87.6348 14.95334098 57104
