{"fetched_at":"2026-07-08T17:59:50.271Z","source":"https://celestrak.org/NORAD/elements/gp.php?NAME=ICEYE&FORMAT=JSON","constellation":"iceye","records":[{"OBJECT_NAME":"ICEYE-X40","OBJECT_ID":"2024-149CK","EPOCH":"2026-07-08T11:27:42.460128","CLASSIFICATION_TYPE":"U","MEAN_MOTION":14.98035826,"ECCENTRICITY":0.0004376,"INCLINATION":97.6792,"RA_OF_ASC_NODE":265.6308,"ARG_OF_PERICENTER":20.5352,"MEAN_ANOMALY":339.6046,"EPHEMERIS_TYPE":0,"NORAD_CAT_ID":60549,"ELEMENT_SET_NO":999,"REV_AT_EPOCH":10326,"BSTAR":0.00012794,"MEAN_MOTION_DOT":0.00001454,"MEAN_MOTION_DDOT":0},{"OBJECT_NAME":"ICEYE-X49","OBJECT_ID":"2024-247H","EPOCH":"2026-07-08T10:11:16.723968","CLASSIFICATION_TYPE":"U","MEAN_MOTION":15.1358804,"ECCENTRICITY":0.0001121,"INCLINATION":44.9968,"RA_OF_ASC_NODE":243.9653,"ARG_OF_PERICENTER":231.8515,"MEAN_ANOMALY":128.2262,"EPHEMERIS_TYPE":0,"NORAD_CAT_ID":62384,"ELEMENT_SET_NO":999,"REV_AT_EPOCH":8539,"BSTAR":0.00015534,"MEAN_MOTION_DOT":0.00002578,"MEAN_MOTION_DDOT":0},{"OBJECT_NAME":"ICEYE-X47","OBJECT_ID":"2024-247N","EPOCH":"2026-07-08T11:10:56.000352","CLASSIFICATION_TYPE":"U","MEAN_MOTION":15.13467031,"ECCENTRICITY":0.0002066,"INCLINATION":44.9955,"RA_OF_ASC_NODE":243.3335,"ARG_OF_PERICENTER":318.4895,"MEAN_ANOMALY":41.5825,"EPHEMERIS_TYPE":0,"NORAD_CAT_ID":62389,"ELEMENT_SET_NO":999,"REV_AT_EPOCH":8540,"BSTAR":0.00011739,"MEAN_MOTION_DOT":0.00001878,"MEAN_MOTION_DDOT":0},{"OBJECT_NAME":"ICEYE-X42","OBJECT_ID":"2025-009CT","EPOCH":"2026-07-07T15:56:14.612064","CLASSIFICATION_TYPE":"U","MEAN_MOTION":14.91853165,"ECCENTRICITY":0.0001284,"INCLINATION":97.7388,"RA_OF_ASC_NODE":266.6104,"ARG_OF_PERICENTER":92.2652,"MEAN_ANOMALY":267.8713,"EPHEMERIS_TYPE":0,"NORAD_CAT_ID":62698,"ELEMENT_SET_NO":999,"REV_AT_EPOCH":8034,"BSTAR":0.00011496,"MEAN_MOTION_DOT":0.00001105,"MEAN_MOTION_DDOT":0},{"OBJECT_NAME":"ICEYE-X41","OBJECT_ID":"2025-009CV","EPOCH":"2026-07-08T11:05:30.011424","CLASSIFICATION_TYPE":"U","MEAN_MOTION":14.96892107,"ECCENTRICITY":0.0000876,"INCLINATION":97.7066,"RA_OF_ASC_NODE":268.6801,"ARG_OF_PERICENTER":10.955,"MEAN_ANOMALY":349.169,"EPHEMERIS_TYPE":0,"NORAD_CAT_ID":62700,"ELEMENT_SET_NO":999,"REV_AT_EPOCH":8059,"BSTAR":0.00010691,"MEAN_MOTION_DOT":0.00001169,"MEAN_MOTION_DDOT":0},{"OBJECT_NAME":"ICEYE-X45","OBJECT_ID":"2025-009DA","EPOCH":"2026-07-08T04:44:22.202880","CLASSIFICATION_TYPE":"U","MEAN_MOTION":15.00829189,"ECCENTRICITY":0.0001325,"INCLINATION":97.839,"RA_OF_ASC_NODE":276.0538,"ARG_OF_PERICENTER":83.4398,"MEAN_ANOMALY":276.6976,"EPHEMERIS_TYPE":0,"NORAD_CAT_ID":62705,"ELEMENT_SET_NO":999,"REV_AT_EPOCH":8083,"BSTAR":0.00016562,"MEAN_MOTION_DOT":0.00002043,"MEAN_MOTION_DDOT":0},{"OBJECT_NAME":"ICEYE-X44","OBJECT_ID":"2025-009DC","EPOCH":"2026-07-08T11:42:39.317184","CLASSIFICATION_TYPE":"U","MEAN_MOTION":14.96139664,"ECCENTRICITY":0.0002502,"INCLINATION":97.7046,"RA_OF_ASC_NODE":268.2776,"ARG_OF_PERICENTER":84.0345,"MEAN_ANOMALY":276.1161,"EPHEMERIS_TYPE":0,"NORAD_CAT_ID":62707,"ELEMENT_SET_NO":999,"REV_AT_EPOCH":10312,"BSTAR":0.00018818,"MEAN_MOTION_DOT":0.00002061,"MEAN_MOTION_DDOT":0},{"OBJECT_NAME":"ICEYE-X48","OBJECT_ID":"2025-052AV","EPOCH":"2026-07-07T16:42:38.109024","CLASSIFICATION_TYPE":"U","MEAN_MOTION":14.98099107,"ECCENTRICITY":0.0003119,"INCLINATION":97.6841,"RA_OF_ASC_NODE":80.5695,"ARG_OF_PERICENTER":121.9484,"MEAN_ANOMALY":238.2042,"EPHEMERIS_TYPE":0,"NORAD_CAT_ID":63253,"ELEMENT_SET_NO":999,"REV_AT_EPOCH":7174,"BSTAR":0.00016718,"MEAN_MOTION_DOT":0.00001921,"MEAN_MOTION_DDOT":0},{"OBJECT_NAME":"ICEYE-X50","OBJECT_ID":"2025-052AX","EPOCH":"2026-07-08T12:06:21.082752","CLASSIFICATION_TYPE":"U","MEAN_MOTION":14.95347461,"ECCENTRICITY":0.000317,"INCLINATION":97.6866,"RA_OF_ASC_NODE":80.9884,"ARG_OF_PERICENTER":116.0121,"MEAN_ANOMALY":244.1426,"EPHEMERIS_TYPE":0,"NORAD_CAT_ID":63255,"ELEMENT_SET_NO":999,"REV_AT_EPOCH":7183,"BSTAR":0.0001328,"MEAN_MOTION_DOT":0.00001408,"MEAN_MOTION_DDOT":0},{"OBJECT_NAME":"ICEYE-X51","OBJECT_ID":"2025-052AZ","EPOCH":"2026-07-08T12:36:22.819968","CLASSIFICATION_TYPE":"U","MEAN_MOTION":15.00874689,"ECCENTRICITY":0.0002019,"INCLINATION":97.76,"RA_OF_ASC_NODE":84.5808,"ARG_OF_PERICENTER":68.3812,"MEAN_ANOMALY":291.7627,"EPHEMERIS_TYPE":0,"NORAD_CAT_ID":63257,"ELEMENT_SET_NO":999,"REV_AT_EPOCH":7200,"BSTAR":0.00021811,"MEAN_MOTION_DOT":0.00002714,"MEAN_MOTION_DDOT":0},{"OBJECT_NAME":"ICEYE-X46","OBJECT_ID":"2025-052BA","EPOCH":"2026-07-08T03:59:50.803872","CLASSIFICATION_TYPE":"U","MEAN_MOTION":14.95347086,"ECCENTRICITY":0.000159,"INCLINATION":97.6863,"RA_OF_ASC_NODE":80.6557,"ARG_OF_PERICENTER":86.8528,"MEAN_ANOMALY":273.2875,"EPHEMERIS_TYPE":0,"NORAD_CAT_ID":63258,"ELEMENT_SET_NO":999,"REV_AT_EPOCH":7178,"BSTAR":0.00012043,"MEAN_MOTION_DOT":0.00001272,"MEAN_MOTION_DDOT":0},{"OBJECT_NAME":"ICEYE-X54","OBJECT_ID":"2025-135AU","EPOCH":"2026-07-08T12:21:23.466816","CLASSIFICATION_TYPE":"U","MEAN_MOTION":14.9470512,"ECCENTRICITY":0.0001538,"INCLINATION":97.7739,"RA_OF_ASC_NODE":303.7329,"ARG_OF_PERICENTER":208.9898,"MEAN_ANOMALY":151.1237,"EPHEMERIS_TYPE":0,"NORAD_CAT_ID":64570,"ELEMENT_SET_NO":999,"REV_AT_EPOCH":5708,"BSTAR":0.00019229,"MEAN_MOTION_DOT":0.00002029,"MEAN_MOTION_DDOT":0},{"OBJECT_NAME":"ICEYE-X52","OBJECT_ID":"2025-135AW","EPOCH":"2026-07-08T13:47:51.250272","CLASSIFICATION_TYPE":"U","MEAN_MOTION":14.93635395,"ECCENTRICITY":0.0000709,"INCLINATION":97.7764,"RA_OF_ASC_NODE":303.5907,"ARG_OF_PERICENTER":223.3703,"MEAN_ANOMALY":136.7461,"EPHEMERIS_TYPE":0,"NORAD_CAT_ID":64572,"ELEMENT_SET_NO":999,"REV_AT_EPOCH":5707,"BSTAR":0.00011142,"MEAN_MOTION_DOT":0.0000112,"MEAN_MOTION_DDOT":0},{"OBJECT_NAME":"ICEYE-X56","OBJECT_ID":"2025-135AY","EPOCH":"2026-07-08T12:09:53.752032","CLASSIFICATION_TYPE":"U","MEAN_MOTION":14.95735429,"ECCENTRICITY":0.0000971,"INCLINATION":97.7754,"RA_OF_ASC_NODE":304.3009,"ARG_OF_PERICENTER":237.2635,"MEAN_ANOMALY":122.8492,"EPHEMERIS_TYPE":0,"NORAD_CAT_ID":64574,"ELEMENT_SET_NO":999,"REV_AT_EPOCH":5711,"BSTAR":0.00014795,"MEAN_MOTION_DOT":0.0000159,"MEAN_MOTION_DDOT":0},{"OBJECT_NAME":"ICEYE-X57","OBJECT_ID":"2025-135BC","EPOCH":"2026-07-08T11:13:23.502432","CLASSIFICATION_TYPE":"U","MEAN_MOTION":15.00846186,"ECCENTRICITY":0.0002052,"INCLINATION":97.8,"RA_OF_ASC_NODE":305.998,"ARG_OF_PERICENTER":62.1769,"MEAN_ANOMALY":297.9662,"EPHEMERIS_TYPE":0,"NORAD_CAT_ID":64578,"ELEMENT_SET_NO":999,"REV_AT_EPOCH":5721,"BSTAR":0.00023574,"MEAN_MOTION_DOT":0.00002936,"MEAN_MOTION_DDOT":0},{"OBJECT_NAME":"ICEYE-X55","OBJECT_ID":"2025-135BF","EPOCH":"2026-07-08T12:18:03.894048","CLASSIFICATION_TYPE":"U","MEAN_MOTION":14.95334098,"ECCENTRICITY":0.0001898,"INCLINATION":97.7752,"RA_OF_ASC_NODE":304.1362,"ARG_OF_PERICENTER":272.4655,"MEAN_ANOMALY":87.6348,"EPHEMERIS_TYPE":0,"NORAD_CAT_ID":64581,"ELEMENT_SET_NO":999,"REV_AT_EPOCH":5710,"BSTAR":0.00016562,"MEAN_MOTION_DOT":0.00001768,"MEAN_MOTION_DDOT":0}]}
